OBJECT_NAME,OBJECT_ID,EPOCH,MEAN_MOTION,ECCENTRICITY,INCLINATION,RA_OF_ASC_NODE,ARG_OF_PERICENTER,MEAN_ANOMALY,EPHEMERIS_TYPE,CLASSIFICATION_TYPE,NORAD_CAT_ID,ELEMENT_SET_NO,REV_AT_EPOCH,BSTAR,MEAN_MOTION_DOT,MEAN_MOTION_DDOT
STARLINK-36755,2026-026F,2026-07-01T02:22:54.031008,15.33473418,.0000725,97.2830,235.0585,151.6893,208.4389,0,U,67726,999,2150,.10975E-2,.35554E-3,0
STARLINK-36741,2026-026G,2026-07-01T02:18:58.737024,15.33452523,.0003323,97.2824,235.0632,124.5870,235.5687,0,U,67727,999,2150,.99454E-3,.32181E-3,0
STARLINK-36757,2026-026H,2026-07-01T02:15:04.279392,15.33487459,.0000592,97.2834,235.0669,2.6224,357.5022,0,U,67728,999,2150,.11286E-2,.36585E-3,0
STARLINK-36751,2026-026J,2026-07-01T03:41:12.554592,15.33479019,.000106,97.2829,235.1390,61.1113,299.0236,0,U,67729,999,2151,.99465E-3,.32208E-3,0
STARLINK-36747,2026-026K,2026-07-01T02:11:08.454912,15.33486246,.0001024,97.2838,235.0722,3.2149,356.9101,0,U,67730,999,2150,.93196E-3,.30172E-3,0
STARLINK-36315,2026-026L,2026-07-01T03:37:17.504256,15.33474270,.0000983,97.2831,235.1427,310.5678,49.5480,0,U,67731,999,2151,.10096E-2,.32691E-3,0
STARLINK-36260,2026-026M,2026-07-01T03:33:22.553280,15.33471373,.0001194,97.2834,235.1470,141.5061,218.6267,0,U,67732,999,2151,.9262E-3,.2997E-3,0
STARLINK-36746,2026-026N,2026-07-01T03:29:27.701664,15.33480036,.0000214,97.2835,235.1447,111.4262,248.7003,0,U,67733,999,2151,.81409E-3,.26327E-3,0
STARLINK-36749,2026-026P,2026-07-01T03:25:32.774016,15.33474247,.0001202,97.2831,235.1513,102.4478,257.6899,0,U,67734,999,2151,.86941E-3,.28123E-3,0
STARLINK-36691,2026-026Q,2026-07-01T03:17:46.206240,15.33485496,.0001149,97.2842,235.1624,66.1353,294.0010,0,U,67735,999,2151,.13463E-2,.43695E-3,0
STARLINK-36317,2026-026R,2026-07-01T03:21:38.318112,15.33442026,.0001246,97.2849,235.1588,114.5725,245.5648,0,U,67736,999,2151,.87335E-3,.28223E-3,0
STARLINK-36330,2026-026S,2026-07-01T03:13:48.086112,15.33462449,.0001422,97.2832,235.1653,128.5355,231.6016,0,U,67737,999,2151,.85585E-3,.27672E-3,0
STARLINK-36327,2026-026T,2026-07-01T03:09:53.307072,15.33469119,.0001799,97.2827,235.1694,114.2959,245.8471,0,U,67738,999,2151,.10206E-2,.33044E-3,0
STARLINK-36329,2026-026U,2026-07-01T02:46:23.577024,15.33467160,.0001273,97.2853,235.1930,288.4973,71.6131,0,U,67739,999,2151,.75292E-3,.24327E-3,0
STARLINK-36737,2026-026V,2026-07-01T03:05:58.369056,15.33466747,.0001577,97.2833,235.1730,108.7938,251.3476,0,U,67740,999,2151,.97063E-3,.31413E-3,0
STARLINK-36740,2026-026W,2026-07-01T02:50:18.371616,15.33479404,.0000648,97.2834,235.1866,144.6794,215.4492,0,U,67741,999,2151,.98883E-3,.32018E-3,0
STARLINK-36693,2026-026X,2026-07-01T03:02:02.147136,15.33486855,.0001892,97.2835,235.1761,105.8006,254.3446,0,U,67742,999,2151,.85878E-3,.27789E-3,0
STARLINK-36717,2026-026Y,2026-07-01T02:54:15.623424,15.33430976,.000211,97.2834,235.1831,107.0240,253.1234,0,U,67743,999,2151,.98166E-3,.31737E-3,0
STARLINK-36692,2026-026Z,2026-07-01T02:58:08.462784,15.33464367,.0000528,97.2850,235.1814,335.7569,24.3648,0,U,67744,999,2151,.87041E-3,.28147E-3,0
2026-027A,2026-027A,2026-07-01T04:07:02.557632,15.19301930,.0010523,97.5085,310.2651,159.7779,200.3875,0,U,67746,999,2108,.40869E-3,.8573E-4,0
2026-027B,2026-027B,2026-07-01T02:19:23.655648,15.19392692,.0010649,97.5080,310.2019,162.2154,197.9455,0,U,67747,999,2107,.37977E-3,.7982E-4,0
2026-027C,2026-027C,2026-07-01T02:43:03.426240,15.18950884,.0011163,97.5094,310.2039,164.2568,195.9015,0,U,67748,999,2107,.27356E-3,.5656E-4,0
2026-027D,2026-027D,2026-06-30T18:56:23.026560,15.20060999,.00104658,97.5080,310.0078,169.8058,190.3391,0,U,67749,999,2098,.38429078E-3,.8237E-4,0
2026-027E,2026-027E,2026-06-30T19:17:44.463840,15.19730581,.00098903,97.5095,310.0106,170.3988,189.7437,0,U,67750,999,2103,.34166124E-3,.7243E-4,0
2026-027F,2026-027F,2026-07-01T02:01:53.237280,15.12413284,.0011185,97.5099,309.3398,72.1615,288.0835,0,U,67751,999,2101,.35595E-3,.6127E-4,0
2026-027G,2026-027G,2026-07-01T01:51:52.924032,15.13535855,.0012119,97.5089,309.1827,194.7409,165.3471,0,U,67752,999,2100,.35603E-3,.6326E-4,0
2025-313BF,2025-313BF,2026-06-30T11:04:16.191264,15.56917424,.00094352,97.3842,259.5038,210.7435,149.3268,0,U,67755,999,2388,.37325542E-3,.26848E-3,0
ELEKTRO-L 5,2026-028A,2026-07-01T00:19:28.972128,1.00272084,.0001802,0.2278,317.5887,181.5128,220.9079,0,U,67756,999,139,0,-.87E-6,0
JAM-E JAM 1,2026-028B,2026-07-01T03:55:31.780992,1.00267920,.0001186,0.2326,306.8018,343.7276,81.6441,0,U,67757,999,126,0,.166E-5,0
KUIPER-00159,2026-030A,2026-06-30T14:47:33.919584,15.38616303,.00067346,51.8844,33.3235,92.9225,267.2533,0,U,67764,999,2246,.93251119E-3,.35923E-3,0
KUIPER-00160,2026-030B,2026-06-30T14:48:22.808160,15.37285666,.00062495,51.8808,33.2741,96.0551,264.1148,0,U,67765,999,2246,.76771555E-3,.28212E-3,0
KUIPER-00177,2026-030C,2026-07-01T00:00:58.997376,14.79937746,.0000353,51.9018,72.0617,95.5808,264.5194,0,U,67766,999,2195,-.16442E-3,-.1474E-4,0
KUIPER-00178,2026-030D,2026-06-30T23:12:30.168576,14.79930004,.0000714,51.8995,72.1959,76.0247,284.0795,0,U,67767,999,2195,.133E-2,.9932E-4,0
KUIPER-00180,2026-030E,2026-06-30T23:20:06.587808,14.79940202,.0000747,51.8973,67.1756,91.2458,268.8590,0,U,67768,999,2202,.78254E-4,.376E-5,0
KUIPER-00197,2026-030F,2026-06-30T23:51:08.370432,14.79921539,.0000825,51.8993,47.0932,146.7328,213.3687,0,U,67769,999,2230,.62135E-3,.4517E-4,0
KUIPER-00198,2026-030G,2026-06-30T22:43:09.949152,14.79928006,.0000771,51.8975,59.7858,103.9337,256.1711,0,U,67770,999,2212,.75588E-4,.355E-5,0
KUIPER-00199,2026-030H,2026-06-30T23:04:13.033344,15.36723877,.0010233,51.8804,33.2968,109.4563,250.7530,0,U,67771,999,2249,.13126E-2,.47809E-3,0
KUIPER-00200,2026-030J,2026-07-01T04:00:03.000096,14.77920785,.000196,51.8975,43.7703,87.1670,325.4369,0,U,67772,999,580,-.30969E-2,-.22652E-3,0
KUIPER-00203,2026-030K,2026-06-30T23:53:13.183008,14.79927042,.0000706,51.9058,77.1231,97.9540,262.1503,0,U,67773,999,2188,.18451E-3,.1185E-4,0
KUIPER-00205,2026-030L,2026-07-01T04:00:03.000096,14.79866894,.0001245,51.9000,41.3055,74.5774,278.3816,0,U,67774,999,411,-.78681E-3,-.6204E-4,0
KUIPER-00208,2026-030M,2026-06-30T17:31:50.906784,14.76487148,.00081642,51.8978,70.3712,77.1156,283.0717,0,U,67775,999,2195,.38317987E-3,.2478E-4,0
KUIPER-00209,2026-030N,2026-06-29T23:50:06.048384,14.79925706,.0000788,51.8995,71.5958,87.3243,272.7810,0,U,67776,999,2187,.78083619E-4,.374E-5,0
KUIPER-00213,2026-030P,2026-07-01T04:15:44.227008,14.79934676,.0000771,51.8965,63.8446,106.6206,253.4841,0,U,67777,999,2208,.71399E-3,.5226E-4,0
KUIPER-00214,2026-030Q,2026-06-29T22:20:38.817312,14.79938844,.00006856,51.9003,66.8611,100.3695,259.7345,0,U,67778,999,2193,.62094945E-3,.4516E-4,0
KUIPER-00215,2026-030R,2026-06-30T14:56:10.923360,14.76329216,.00005119,51.9013,50.8495,89.4479,270.6540,0,U,67779,999,2222,.33659479E-3,.2143E-4,0
KUIPER-00218,2026-030S,2026-06-30T22:35:22.894080,14.79917882,.0000789,51.8979,64.8054,103.9997,256.1053,0,U,67780,999,2205,.5299E-4,.183E-5,0
KUIPER-00220,2026-030T,2026-07-01T04:00:03.000096,14.87813656,.0006186,51.8987,39.0509,92.2651,154.4740,0,U,67781,999,579,-.56162E-2,-.5169E-3,0
KUIPER-00222,2026-030U,2026-06-30T15:25:35.598432,14.79933509,.00007392,51.8984,61.2796,101.7900,258.3145,0,U,67782,999,2207,.54944967E-3,.397E-4,0
KUIPER-00223,2026-030V,2026-06-30T16:25:49.354464,14.79932870,.00008157,51.9009,53.3838,114.1093,245.9955,0,U,67783,999,2219,.22760508E-3,.1514E-4,0
KUIPER-00225,2026-030W,2026-06-30T22:46:58.683648,14.79870074,.0000674,51.8989,57.3811,72.3802,287.7233,0,U,67784,999,2215,.59239E-3,.4291E-4,0
KUIPER-00226,2026-030X,2026-07-01T04:00:03.000096,14.88140167,.0017429,51.8963,42.6349,99.6364,316.2716,0,U,67785,999,324,-.20847E+0,-.1769105E-1,0
KUIPER-00259,2026-030Y,2026-06-30T15:29:26.291616,14.79945742,.00007521,51.8984,58.6295,84.8842,275.2207,0,U,67786,999,2211,-.48748458E-3,-.3936E-4,0
KUIPER-00260,2026-030Z,2026-06-30T15:33:20.078784,14.79962040,.00010096,51.9011,56.2085,95.2149,264.8929,0,U,67787,999,2205,-.55455409E-3,-.4449E-4,0
KUIPER-00262,2026-030AA,2026-06-30T22:51:03.223296,14.79926916,.000103,51.9013,54.7834,140.9507,219.1529,0,U,67788,999,2219,.64651E-3,.471E-4,0
KUIPER-00266,2026-030AB,2026-06-30T15:37:12.745344,14.79930597,.00029201,51.9002,53.6123,132.0964,228.0247,0,U,67789,999,2218,.54716602E-3,.3952E-4,0
KUIPER-00268,2026-030AC,2026-06-29T22:40:03.402912,14.79928930,.00008183,51.9041,54.2453,108.1724,251.9327,0,U,67790,999,2211,.27731796E-3,.1893E-4,0
KUIPER-00270,2026-030AD,2026-07-01T04:00:03.000096,14.81065467,.0001279,51.8982,38.8416,31.9796,122.2126,0,U,67791,999,553,-.25973E-2,-.20504E-3,0
KUIPER-00274,2026-030AE,2026-06-30T23:27:54.143136,14.79937047,.0000878,51.9011,62.1581,148.4937,211.6078,0,U,67792,999,2209,.58893E-3,.4272E-4,0
KUIPER-00275,2026-030AF,2026-06-29T22:02:57.928128,14.79924755,.00008881,51.9000,46.8521,106.1704,253.9356,0,U,67793,999,2221,-.12469638E-2,-.9712E-4,0
KUIPER-00276,2026-030AG,2026-06-30T14:56:25.360800,14.79961756,.00043732,51.8997,48.7254,92.9810,267.1652,0,U,67794,999,2225,-.14590348E-3,-.1335E-4,0
KUIPER-00279,2026-030AH,2026-07-01T04:00:03.000096,14.82263951,.0002492,51.9020,36.3648,111.7959,19.4496,0,U,67795,999,570,-.31006E-2,-.25127E-3,0
CREW DRAGON 12,2026-031A,2026-07-01T02:54:32.423040,15.49499881,.0004254,51.6311,231.1150,253.5517,106.5005,0,U,67796,999,62634,.13146E-3,.6925E-4,0
STARLINK-36800,2026-032A,2026-07-01T02:03:22.205088,15.33423443,.0001588,97.2838,9.7219,84.1977,275.9446,0,U,67797,999,2234,.71427E-3,.23039E-3,0
STARLINK-36798,2026-032B,2026-07-01T01:35:56.429376,15.33454392,.0001376,97.2846,9.5952,98.6480,261.4919,0,U,67798,999,2233,.79064E-3,.25544E-3,0
STARLINK-36804,2026-032C,2026-07-01T01:59:26.199168,15.33453713,.000163,97.2851,9.5746,79.3987,280.7439,0,U,67799,999,2233,.83886E-3,.27111E-3,0
STARLINK-36354,2026-032D,2026-07-01T01:43:46.670880,15.33453832,.0002392,97.2829,9.5905,82.8598,277.2917,0,U,67800,999,2233,.92206E-3,.2982E-3,0
